GLOBALSTAR M035         
1 25851U 99037A   25056.10695868 -.00000081  00000+0 -64990-3 0  9991
2 25851  51.9966 304.9203 0013759 156.6663 353.3595 11.04536555 83872
GLOBALSTAR M032         
1 25852U 99037B   25056.49895855  .00000019  00000+0  27373-2 0  9994
2 25852  51.9940 136.9437 0010696 340.9634  19.0765 11.19059468122283
GLOBALSTAR M051         
1 25853U 99037C   25056.38855892 -.00000021  00000+0  12565-2 0  9991
2 25853  51.9813 310.5977 0001435  35.5609 324.5297 11.42203570119610
GLOBALSTAR M030         
1 25854U 99037D   25056.45417866 -.00000121  00000+0 -97884-3 0  9995
2 25854  51.9869 123.6445 0004000 203.4916 156.5718 11.55100597137130
GLOBALSTAR M048         
1 25872U 99041A   25056.50046263 -.00000052  00000+0  48371-3 0  9994
2 25872  51.9338 241.0404 0013042 356.4242  29.8057 11.33854963112318
GLOBALSTAR M026         
1 25873U 99041B   25056.33240130 -.00000048  00000+0  59048-3 0  9993
2 25873  52.0014  63.5464 0001677  79.7821 293.3352 11.06828172136106
GLOBALSTAR M043         
1 25874U 99041C   25056.49880532 -.00000027  00000+0  12358-2 0  9996
2 25874  51.9442 344.2385 0013547 120.4754  51.0074 11.25689881110294
GLOBALSTAR M028         
1 25875U 99041D   25056.57868493 -.00000102  00000+0 -92148-5 0  9991
2 25875  51.9618 165.8602 0063585 188.4370 171.5426 12.50577614176216
